UMBRA-10                
1 60547U 24149CH  25054.16246716  .00019870  00000+0  15618-2 0  9998
2 60547  97.7295 133.6110 0001171 262.9144  97.1947 15.00902570 28473
ICEYE-X33               
1 60548U 24149CJ  25054.21367933  .00008057  00000+0  70901-3 0  9992
2 60548  97.7249 133.0738 0004262 236.4400 123.6415 14.96760853 28439
ICEYE-X40               
1 60549U 24149CK  25053.47342198  .00003218  00000+0  29454-3 0  9997
2 60549  97.7233 132.1541 0004448 239.3339 120.7444 14.95659801 28310
SATELIOT_1              
1 60550U 24149CL  25053.48558388  .00006245  00000+0  57301-3 0  9995
2 60550  97.7180 132.0127 0006149 234.5113 125.5534 14.95200081 28314
BRO-14                  
1 60551U 24149CM  25053.47481883  .00002872  00000+0  27251-3 0  9993
2 60551  97.7301 132.1586 0005811 256.7038 103.3534 14.94308323 28307
SATELIOT_3              
1 60552U 24149CN  25054.18055485  .00005074  00000+0  46052-3 0  9995
2 60552  97.7254 132.9525 0006768 244.8852 115.1667 14.95719402 28426
BRO-15                  
1 60553U 24149CP  25054.16927735  .00002574  00000+0  24253-3 0  9991
2 60553  97.7238 132.7713 0006884 242.6610 117.3910 14.94675796 28413
UM5-RIBAT               
1 60554U 24149CQ  25054.18424228  .00005724  00000+0  50850-3 0  9995
2 60554  97.7204 132.9775 0007462 232.8397 127.2144 14.96504017 28433
UM5-EOSAT               
1 60555U 24149CR  25053.21669103  .00006788  00000+0  59660-3 0  9991
2 60555  97.7256 132.2493 0007515 244.0346 116.0101 14.96856590 28298
LASARSAT                
1 62391U 24247Q   25053.31960736  .00026287  00000+0  11794-2 0  9998
2 62391  44.9943  22.1411 0003681 121.8878 238.2361 15.20797871  9708
CROCUBE                 
1 62394U 24247T   25053.32147004  .00027207  00000+0  12198-2 0  9999
2 62394  44.9934  22.1520 0004205 122.6321 237.4965 15.20803784  9709
